{"type": "FeatureCollection", "features": [{"type": "Feature", "properties": {"name": "Port Main Road 1", "row": "35M"}, "geometry": {"type": "LineString", "coordinates": [[83.275, 17.695], [83.28, 17.7], [83.29, 17.71], [83.31, 17.72]]}}, {"type": "Feature", "properties": {"name": "Port Main Road 2", "row": "30M"}, "geometry": {"type": "LineString", "coordinates": [[83.27, 17.7], [83.275, 17.705], [83.28, 17.705], [83.29, 17.708]]}}, {"type": "Feature", "properties": {"name": "VP24", "row": "18M"}, "geometry": {"type": "LineString", "coordinates": [[83.28, 17.705], [83.282, 17.695], [83.285, 17.685]]}}, {"type": "Feature", "properties": {"name": "Outer Harbour Road", "row": "70M"}, "geometry": {"type": "LineString", "coordinates": [[83.295, 17.69], [83.295, 17.68], [83.3, 17.67]]}}, {"type": "Feature", "properties": {"name": "DB NTR Beach Road", "row": "45M"}, "geometry": {"type": "LineString", "coordinates": [[83.3, 17.67], [83.31, 17.675], [83.32, 17.68]]}}]}